{
  "type": "FeatureCollection",
  "features": [
    {
      "type": "Feature",
      "properties": {
        "norad_id": 66618,
        "name": "STARLINK-35970",
        "group": "last-30-days",
        "lat": -52.30014630841461,
        "lon": 51.93674154458352,
        "alt_km": 444.359279645415,
        "timestamp": "2025-12-25T03:55:54.951863+00:00",
        "meta_object_name": "STARLINK-35970",
        "meta_object_id": "2025-271B",
        "meta_epoch": "2025-12-24T20:00:01.000224",
        "meta_mean_motion": 15.44041454,
        "meta_eccentricity": 0.0001522,
        "meta_inclination": 53.1598,
        "meta_ra_of_asc_node": 129.4411,
        "meta_arg_of_pericenter": 93.7897,
        "meta_mean_anomaly": 147.6005,
        "meta_ephemeris_type": 0,
        "meta_classification_type": "U",
        "meta_norad_cat_id": 66618,
        "meta_element_set_no": 999,
        "meta_rev_at_epoch": 597,
        "meta_bstar": -0.049476,
        "meta_mean_motion_dot": -0.02040795,
        "meta_mean_motion_ddot": 0,
        "tle_line1": "1 66618U 25271B   25358.83334491 -.02040795  00000+0 -49476-1 0  9991",
        "tle_line2": "2 66618  53.1598 129.4411 0001522  93.7897 147.6005 15.44041454  5971"
      },
      "geometry": {
        "type": "Point",
        "coordinates": [
          51.93674154458352,
          -52.30014630841461
        ]
      }
    },
    {
      "type": "Feature",
      "properties": {
        "norad_id": 66619,
        "name": "STARLINK-35951",
        "group": "last-30-days",
        "lat": 2.2765804010019686,
        "lon": -53.62601626334974,
        "alt_km": 447.9691743003177,
        "timestamp": "2025-12-25T03:55:54.951873+00:00",
        "meta_object_name": "STARLINK-35951",
        "meta_object_id": "2025-271C",
        "meta_epoch": "2025-12-24T20:00:01.000224",
        "meta_mean_motion": 15.39563812,
        "meta_eccentricity": 0.0001268,
        "meta_inclination": 53.1593,
        "meta_ra_of_asc_node": 129.6396,
        "meta_arg_of_pericenter": 77.6381,
        "meta_mean_anomaly": 66.6436,
        "meta_ephemeris_type": 0,
        "meta_classification_type": "U",
        "meta_norad_cat_id": 66619,
        "meta_element_set_no": 999,
        "meta_rev_at_epoch": 602,
        "meta_bstar": 0.0020388,
        "meta_mean_motion_dot": 0.00081878,
        "meta_mean_motion_ddot": 0,
        "tle_line1": "1 66619U 25271C   25358.83334491  .00081878  00000+0  20388-2 0  9997",
        "tle_line2": "2 66619  53.1593 129.6396 0001268  77.6381  66.6436 15.39563812  6023"
      },
      "geometry": {
        "type": "Point",
        "coordinates": [
          -53.62601626334974,
          2.2765804010019686
        ]
      }
    },
    {
      "type": "Feature",
      "properties": {
        "norad_id": 66620,
        "name": "STARLINK-35936",
        "group": "last-30-days",
        "lat": 40.57528614730969,
        "lon": -91.75769365904421,
        "alt_km": 441.45804564902573,
        "timestamp": "2025-12-25T03:55:54.951884+00:00",
        "meta_object_name": "STARLINK-35936",
        "meta_object_id": "2025-271D",
        "meta_epoch": "2025-12-24T20:00:01.000224",
        "meta_mean_motion": 15.39565357,
        "meta_eccentricity": 0.0001256,
        "meta_inclination": 53.1595,
        "meta_ra_of_asc_node": 129.7437,
        "meta_arg_of_pericenter": 67.3132,
        "meta_mean_anomaly": 25.4763,
        "meta_ephemeris_type": 0,
        "meta_classification_type": "U",
        "meta_norad_cat_id": 66620,
        "meta_element_set_no": 999,
        "meta_rev_at_epoch": 602,
        "meta_bstar": 0.0019442,
        "meta_mean_motion_dot": 0.00078025,
        "meta_mean_motion_ddot": 0,
        "tle_line1": "1 66620U 25271D   25358.83334491  .00078025  00000+0  19442-2 0  9998",
        "tle_line2": "2 66620  53.1595 129.7437 0001256  67.3132  25.4763 15.39565357  6023"
      },
      "geometry": {
        "type": "Point",
        "coordinates": [
          -91.75769365904421,
          40.57528614730969
        ]
      }
    },
    {
      "type": "Feature",
      "properties": {
        "norad_id": 66621,
        "name": "STARLINK-35847",
        "group": "last-30-days",
        "lat": -50.3563588833763,
        "lon": 63.05607777309578,
        "alt_km": 435.273517137447,
        "timestamp": "2025-12-25T03:55:54.951894+00:00",
        "meta_object_name": "STARLINK-35847",
        "meta_object_id": "2025-271E",
        "meta_epoch": "2025-12-24T20:00:01.000224",
        "meta_mean_motion": 15.45535417,
        "meta_eccentricity": 0.0001173,
        "meta_inclination": 53.1598,
        "meta_ra_of_asc_node": 129.4318,
        "meta_arg_of_pericenter": 80.8828,
        "meta_mean_anomaly": 165.0695,
        "meta_ephemeris_type": 0,
        "meta_classification_type": "U",
        "meta_norad_cat_id": 66621,
        "meta_element_set_no": 999,
        "meta_rev_at_epoch": 597,
        "meta_bstar": 0.00014478,
        "meta_mean_motion_dot": 6.641e-05,
        "meta_mean_motion_ddot": 0,
        "tle_line1": "1 66621U 25271E   25358.83334491  .00006641  00000+0  14478-3 0  9999",
        "tle_line2": "2 66621  53.1598 129.4318 0001173  80.8828 165.0695 15.45535417  5971"
      },
      "geometry": {
        "type": "Point",
        "coordinates": [
          63.05607777309578,
          -50.3563588833763
        ]
      }
    },
    {
      "type": "Feature",
      "properties": {
        "norad_id": 66622,
        "name": "STARLINK-35950",
        "group": "last-30-days",
        "lat": 36.673900801215126,
        "lon": 162.27146943730688,
        "alt_km": 442.04154500964887,
        "timestamp": "2025-12-25T03:55:54.951904+00:00",
        "meta_object_name": "STARLINK-35950",
        "meta_object_id": "2025-271F",
        "meta_epoch": "2025-12-24T19:56:00.766752",
        "meta_mean_motion": 15.39636729,
        "meta_eccentricity": 5.69e-05,
        "meta_inclination": 53.162,
        "meta_ra_of_asc_node": 129.9074,
        "meta_arg_of_pericenter": 51.9875,
        "meta_mean_anomaly": 308.1181,
        "meta_ephemeris_type": 0,
        "meta_classification_type": "U",
        "meta_norad_cat_id": 66622,
        "meta_element_set_no": 999,
        "meta_rev_at_epoch": 607,
        "meta_bstar": 0.0005481,
        "meta_mean_motion_dot": 0.00021598,
        "meta_mean_motion_ddot": 0,
        "tle_line1": "1 66622U 25271F   25358.83056443  .00021598  00000+0  54810-3 0  9990",
        "tle_line2": "2 66622  53.1620 129.9074 0000569  51.9875 308.1181 15.39636729  6074"
      },
      "geometry": {
        "type": "Point",
        "coordinates": [
          162.27146943730688,
          36.673900801215126
        ]
      }
    },
    {
      "type": "Feature",
      "properties": {
        "norad_id": 66623,
        "name": "STARLINK-35920",
        "group": "last-30-days",
        "lat": -2.6022961968031053,
        "lon": 126.48304683620569,
        "alt_km": 448.3010202201167,
        "timestamp": "2025-12-25T03:55:54.951914+00:00",
        "meta_object_name": "STARLINK-35920",
        "meta_object_id": "2025-271G",
        "meta_epoch": "2025-12-24T20:09:23.217120",
        "meta_mean_motion": 15.39644776,
        "meta_eccentricity": 7.4e-05,
        "meta_inclination": 53.1613,
        "meta_ra_of_asc_node": 129.9627,
        "meta_arg_of_pericenter": 82.3587,
        "meta_mean_anomaly": 277.7502,
        "meta_ephemeris_type": 0,
        "meta_classification_type": "U",
        "meta_norad_cat_id": 66623,
        "meta_element_set_no": 999,
        "meta_rev_at_epoch": 607,
        "meta_bstar": 0.00082949,
        "meta_mean_motion_dot": 0.0003295,
        "meta_mean_motion_ddot": 0,
        "tle_line1": "1 66623U 25271G   25358.83985205  .00032950  00000+0  82949-3 0  9996",
        "tle_line2": "2 66623  53.1613 129.9627 0000740  82.3587 277.7502 15.39644776  6079"
      },
      "geometry": {
        "type": "Point",
        "coordinates": [
          126.48304683620569,
          -2.6022961968031053
        ]
      }
    },
    {
      "type": "Feature",
      "properties": {
        "norad_id": 66624,
        "name": "STARLINK-35927",
        "group": "last-30-days",
        "lat": -18.08641475942837,
        "lon": -37.795243627429876,
        "alt_km": 449.9471567716073,
        "timestamp": "2025-12-25T03:55:54.951924+00:00",
        "meta_object_name": "STARLINK-35927",
        "meta_object_id": "2025-271H",
        "meta_epoch": "2025-12-24T20:00:01.000224",
        "meta_mean_motion": 15.39601034,
        "meta_eccentricity": 6.47e-05,
        "meta_inclination": 53.1596,
        "meta_ra_of_asc_node": 129.5894,
        "meta_arg_of_pericenter": 118.6784,
        "meta_mean_anomaly": 51.2382,
        "meta_ephemeris_type": 0,
        "meta_classification_type": "U",
        "meta_norad_cat_id": 66624,
        "meta_element_set_no": 999,
        "meta_rev_at_epoch": 602,
        "meta_bstar": 0.002588,
        "meta_mean_motion_dot": 0.00104483,
        "meta_mean_motion_ddot": 0,
        "tle_line1": "1 66624U 25271H   25358.83334491  .00104483  00000+0  25880-2 0  9993",
        "tle_line2": "2 66624  53.1596 129.5894 0000647 118.6784  51.2382 15.39601034  6026"
      },
      "geometry": {
        "type": "Point",
        "coordinates": [
          -37.795243627429876,
          -18.08641475942837
        ]
      }
    }
  ]
}